IXPE                    
1 49954U 21121A   24157.91668981  .00007140  00000+0  51902-3 0  9996
2 49954   0.2286 116.8306 0009358 111.2723 173.8979 14.98097300  5491
